CRE (WAAS/PRN 138)      
1 28868U 05036A   22286.21245917 -.00000077  00000+0  00000+0 0  9990
2 28868   0.8542  92.4625 0001915  73.1258 185.3549  1.00272413 62691
IOR-W (EGNOS/PRN 126)   
1 28899U 05044A   22285.89705392  .00000008  00000+0  00000+0 0  9997
2 28899   3.5927  38.3746 0003069 176.4975 193.4278  1.00272849 62030
QZS-1 (QZSS/PRN 183)    
1 37158U 10045A   22285.91327319 -.00000145  00000+0  00000+0 0  9997
2 37158  42.4550 131.7655 0746934 270.2442  85.9339  1.00280711 44249
GSAT-8 (GAGAN/PRN 127)  
1 37605U 11022A   22285.89530991  .00000081  00000+0  00000+0 0  9997
2 37605   0.0581  93.1416 0007061 158.4426 147.2413  1.00273047 41770
LUCH 5A (SDCM/PRN 140)  
1 37951U 11074B   22285.86033035 -.00000046  00000+0  00000+0 0  9994
2 37951   5.3081  95.4502 0003721  70.9329 331.8838  1.00274946 39720
SES-5 (EGNOS/PRN 136)   
1 38652U 12036A   22285.67896601  .00000030  00000+0  00000+0 0  9999
2 38652   0.0601 290.5754 0002037 270.4062  69.6662  1.00270753 31013
GSAT-10 (GAGAN/PRN 128) 
1 38779U 12051B   22285.83444427 -.00000168  00000+0  00000+0 0  9992
2 38779   0.0485 109.1089 0003699 131.7607 163.9282  1.00270850 36646
LUCH 5B (SDCM/PRN 125)  
1 38977U 12061A   22285.25980766 -.00000137  00000+0  00000+0 0  9996
2 38977   7.5425  61.7142 0005104 106.6119 289.6907  1.00270330 36707
ASTRA 5B (EGNOS/PRN 123)
1 39617U 14011B   22285.82454333  .00000151  00000+0  00000+0 0  9999
2 39617   0.0834 299.2664 0004685 259.6136 150.8627  1.00274306 31192
LUCH 5V (SDCM/PRN 141)  
1 39727U 14023A   22285.90324515 -.00000272  00000+0  00000+0 0  9996
2 39727   1.7749  76.5740 0003132 145.3305 219.4645  1.00274751549047
GSAT-15 (GAGAN/PRN 139) 
1 41028U 15065A   22286.03452198 -.00000261  00000+0  00000+0 0  9992
2 41028   0.0751  89.6114 0001899  89.9150 307.9949  1.00273153 25390
E 117 W B (WAAS/PRN 131)
1 41589U 16038B   22286.20639609 -.00000015  00000+0  00000+0 0  9995
2 41589   0.0048  26.5519 0000253  55.3720 257.1541  1.00271941 23231
SES-15 (WAAS/PRN 133)   
1 42709U 17026A   22286.19962854  .00000057  00000+0  00000+0 0  9992
2 42709   0.0339   2.6993 0000431 216.8077 104.9631  1.00268943 20714
QZS-2 (QZSS/PRN 184)    
1 42738U 17028A   22285.79463184 -.00000211  00000+0  00000+0 0  9996
2 42738  41.5842 262.5114 0747346 270.6212 273.2806  1.00255378 19674
QZS-3 (QZSS/PRN 189)    
1 42917U 17048A   22285.84805582 -.00000351  00000+0  00000+0 0  9990
2 42917   0.0547 170.5690 0002493  48.5740 234.5396  1.00276523 18787
QZS-4 (QZSS/PRN 185)    
1 42965U 17062A   22285.53730064 -.00000352  00000+0  00000+0 0  9998
2 42965  40.7404   0.6192 0749689 270.0132  82.7934  1.00274900 18334
GALAXY 30 (WAAS/PRN 135)
1 46114U 20056C   22285.63023823  .00000033  00000+0  00000+0 0  9999
2 46114   0.0165 184.7191 0002809  27.4628 270.9009  1.00272023  7820
